IRIDIUM 159             
1 43578U 18061K   25265.43466180  .00000426  00000+0  14504-3 0  9993
2 43578  86.4040 168.6159 0001982  83.8513 276.2908 14.34222887375005
IRIDIUM 180             
1 43922U 19002A   25265.57369206  .00000073  00000+0  18880-4 0  9998
2 43922  86.3920 105.4935 0002086  90.8828 269.2607 14.34217823350632
IRIDIUM 176             
1 43923U 19002B   25265.84200389  .00000437  00000+0  65449-4 0  9992
2 43923  86.6045 105.3637 0003009  89.9162 270.2400 14.72251470359919
IRIDIUM 168             
1 43924U 19002C   25265.56734943  .00000056  00000+0  12819-4 0  9990
2 43924  86.3922 105.5660 0002121  89.0999 271.0440 14.34217728350619
IRIDIUM 173             
1 43925U 19002D   25265.62443226 -.00000039  00000+0 -21140-4 0  9999
2 43925  86.3921 105.4418 0002065  91.8816 268.2617 14.34216975350601
IRIDIUM 169             
1 43926U 19002E   25265.87986134  .00000394  00000+0  12215-3 0  9991
2 43926  86.4241 136.9651 0003329  94.4169 265.7410 14.38610614351796
IRIDIUM 172             
1 43927U 19002F   25265.82739353  .00000083  00000+0  22473-4 0  9999
2 43927  86.3920 105.3640 0001916  93.0998 267.0417 14.34218275350641
IRIDIUM 175             
1 43928U 19002G   25265.83712876  .00001853  00000+0  28979-3 0  9994
2 43928  86.1486  52.3056 0002643  72.6364 287.5142 14.72252316359903
